{
  "type": "FeatureCollection",
  "features": [
    {
      "type": "Feature",
      "properties": {
        "norad_id": 66587,
        "name": "CZ-3B R/B",
        "group": "last-30-days",
        "lat": 17.27765084299749,
        "lon": -22.447172560006095,
        "alt_km": 2666.283286780227,
        "timestamp": "2025-12-02T08:59:31.504678+00:00",
        "meta_object_name": "CZ-3B R/B",
        "meta_object_id": "2025-269B",
        "meta_epoch": "2025-11-23T12:20:01.405824",
        "meta_mean_motion": 2.01516013,
        "meta_eccentricity": 0.75253415,
        "meta_inclination": 51.3768,
        "meta_ra_of_asc_node": 174.0599,
        "meta_arg_of_pericenter": 225.2938,
        "meta_mean_anomaly": 41.2116,
        "meta_ephemeris_type": 0,
        "meta_classification_type": "U",
        "meta_norad_cat_id": 66587,
        "meta_element_set_no": 999,
        "meta_rev_at_epoch": 6,
        "meta_bstar": 0.00049596604,
        "meta_mean_motion_dot": 0.0001032,
        "meta_mean_motion_ddot": -9.13844e-07,
        "tle_line1": "1 66587U 25269B   25327.51390516  .00010320 -91384-6  49597-3 0  9990",
        "tle_line2": "2 66587  51.3768 174.0599 7525341 225.2938  41.2116  2.01516013    67"
      },
      "geometry": {
        "type": "Point",
        "coordinates": [
          -22.447172560006095,
          17.27765084299749
        ]
      }
    },
    {
      "type": "Feature",
      "properties": {
        "norad_id": 66588,
        "name": "STARLINK-36076",
        "group": "last-30-days",
        "lat": -42.88415625533204,
        "lon": 169.21960572534687,
        "alt_km": 329.4912845899098,
        "timestamp": "2025-12-02T08:59:31.504694+00:00",
        "meta_object_name": "STARLINK-36076",
        "meta_object_id": "2025-270A",
        "meta_epoch": "2025-12-01T16:00:03.998880",
        "meta_mean_motion": 15.83253097,
        "meta_eccentricity": 0.0001661,
        "meta_inclination": 42.9983,
        "meta_ra_of_asc_node": 258.9364,
        "meta_arg_of_pericenter": 255.8292,
        "meta_mean_anomaly": 300.3757,
        "meta_ephemeris_type": 0,
        "meta_classification_type": "U",
        "meta_norad_cat_id": 66588,
        "meta_element_set_no": 999,
        "meta_rev_at_epoch": 262,
        "meta_bstar": -0.0075641,
        "meta_mean_motion_dot": -0.0149203,
        "meta_mean_motion_ddot": 0,
        "tle_line1": "1 66588U 25270A   25335.66671295 -.01492030  00000+0 -75641-2 0  9994",
        "tle_line2": "2 66588  42.9983 258.9364 0001661 255.8292 300.3757 15.83253097  2622"
      },
      "geometry": {
        "type": "Point",
        "coordinates": [
          169.21960572534687,
          -42.88415625533204
        ]
      }
    },
    {
      "type": "Feature",
      "properties": {
        "norad_id": 66589,
        "name": "STARLINK-35447",
        "group": "last-30-days",
        "lat": -42.57482291790315,
        "lon": 174.18124842306602,
        "alt_km": 329.3748899572847,
        "timestamp": "2025-12-02T08:59:31.504704+00:00",
        "meta_object_name": "STARLINK-35447",
        "meta_object_id": "2025-270B",
        "meta_epoch": "2025-12-01T16:00:03.998880",
        "meta_mean_motion": 15.83314069,
        "meta_eccentricity": 0.0001635,
        "meta_inclination": 42.9982,
        "meta_ra_of_asc_node": 258.9275,
        "meta_arg_of_pericenter": 255.7976,
        "meta_mean_anomaly": 303.9303,
        "meta_ephemeris_type": 0,
        "meta_classification_type": "U",
        "meta_norad_cat_id": 66589,
        "meta_element_set_no": 999,
        "meta_rev_at_epoch": 273,
        "meta_bstar": -0.00757,
        "meta_mean_motion_dot": -0.014969,
        "meta_mean_motion_ddot": 0,
        "tle_line1": "1 66589U 25270B   25335.66671295 -.01496900  00000+0 -75700-2 0  9991",
        "tle_line2": "2 66589  42.9982 258.9275 0001635 255.7976 303.9303 15.83314069  2737"
      },
      "geometry": {
        "type": "Point",
        "coordinates": [
          174.18124842306602,
          -42.57482291790315
        ]
      }
    },
    {
      "type": "Feature",
      "properties": {
        "norad_id": 66590,
        "name": "STARLINK-35429",
        "group": "last-30-days",
        "lat": -42.765297346378254,
        "lon": 171.56287512958,
        "alt_km": 329.39049644472743,
        "timestamp": "2025-12-02T08:59:31.504714+00:00",
        "meta_object_name": "STARLINK-35429",
        "meta_object_id": "2025-270C",
        "meta_epoch": "2025-12-01T16:00:03.998880",
        "meta_mean_motion": 15.83284356,
        "meta_eccentricity": 0.0001609,
        "meta_inclination": 42.9983,
        "meta_ra_of_asc_node": 258.9324,
        "meta_arg_of_pericenter": 260.0941,
        "meta_mean_anomaly": 297.7504,
        "meta_ephemeris_type": 0,
        "meta_classification_type": "U",
        "meta_norad_cat_id": 66590,
        "meta_element_set_no": 999,
        "meta_rev_at_epoch": 273,
        "meta_bstar": -0.0075246,
        "meta_mean_motion_dot": -0.01487077,
        "meta_mean_motion_ddot": 0,
        "tle_line1": "1 66590U 25270C   25335.66671295 -.01487077  00000+0 -75246-2 0  9993",
        "tle_line2": "2 66590  42.9983 258.9324 0001609 260.0941 297.7504 15.83284356  2735"
      },
      "geometry": {
        "type": "Point",
        "coordinates": [
          171.56287512958,
          -42.765297346378254
        ]
      }
    },
    {
      "type": "Feature",
      "properties": {
        "norad_id": 66591,
        "name": "STARLINK-36058",
        "group": "last-30-days",
        "lat": -42.287486438574916,
        "lon": 177.12527194767762,
        "alt_km": 329.3521466222992,
        "timestamp": "2025-12-02T08:59:31.504725+00:00",
        "meta_object_name": "STARLINK-36058",
        "meta_object_id": "2025-270D",
        "meta_epoch": "2025-12-01T16:00:03.998880",
        "meta_mean_motion": 15.83317533,
        "meta_eccentricity": 0.0001642,
        "meta_inclination": 42.9983,
        "meta_ra_of_asc_node": 258.922,
        "meta_arg_of_pericenter": 260.7738,
        "meta_mean_anomaly": 301.1633,
        "meta_ephemeris_type": 0,
        "meta_classification_type": "U",
        "meta_norad_cat_id": 66591,
        "meta_element_set_no": 999,
        "meta_rev_at_epoch": 262,
        "meta_bstar": -0.0076142,
        "meta_mean_motion_dot": -0.01504836,
        "meta_mean_motion_ddot": 0,
        "tle_line1": "1 66591U 25270D   25335.66671295 -.01504836  00000+0 -76142-2 0  9993",
        "tle_line2": "2 66591  42.9983 258.9220 0001642 260.7738 301.1633 15.83317533  2624"
      },
      "geometry": {
        "type": "Point",
        "coordinates": [
          177.12527194767762,
          -42.287486438574916
        ]
      }
    },
    {
      "type": "Feature",
      "properties": {
        "norad_id": 66592,
        "name": "STARLINK-36066",
        "group": "last-30-days",
        "lat": -41.96650524289177,
        "lon": 179.7363012868384,
        "alt_km": 329.36758289552654,
        "timestamp": "2025-12-02T08:59:31.504734+00:00",
        "meta_object_name": "STARLINK-36066",
        "meta_object_id": "2025-270E",
        "meta_epoch": "2025-12-01T16:00:03.998880",
        "meta_mean_motion": 15.83342928,
        "meta_eccentricity": 0.0001654,
        "meta_inclination": 42.9983,
        "meta_ra_of_asc_node": 258.9172,
        "meta_arg_of_pericenter": 255.744,
        "meta_mean_anomaly": 308.1125,
        "meta_ephemeris_type": 0,
        "meta_classification_type": "U",
        "meta_norad_cat_id": 66592,
        "meta_element_set_no": 999,
        "meta_rev_at_epoch": 252,
        "meta_bstar": -0.0076532,
        "meta_mean_motion_dot": -0.01513256,
        "meta_mean_motion_ddot": 0,
        "tle_line1": "1 66592U 25270E   25335.66671295 -.01513256  00000+0 -76532-2 0  9993",
        "tle_line2": "2 66592  42.9983 258.9172 0001654 255.7440 308.1125 15.83342928  2526"
      },
      "geometry": {
        "type": "Point",
        "coordinates": [
          179.7363012868384,
          -41.96650524289177
        ]
      }
    },
    {
      "type": "Feature",
      "properties": {
        "norad_id": 66593,
        "name": "STARLINK-36031",
        "group": "last-30-days",
        "lat": -41.550040473660786,
        "lon": -177.4525879126486,
        "alt_km": 329.30522538089826,
        "timestamp": "2025-12-02T08:59:31.504744+00:00",
        "meta_object_name": "STARLINK-36031",
        "meta_object_id": "2025-270F",
        "meta_epoch": "2025-12-01T16:00:03.998880",
        "meta_mean_motion": 15.83355894,
        "meta_eccentricity": 0.0001703,
        "meta_inclination": 42.9982,
        "meta_ra_of_asc_node": 258.912,
        "meta_arg_of_pericenter": 260.068,
        "meta_mean_anomaly": 305.9294,
        "meta_ephemeris_type": 0,
        "meta_classification_type": "U",
        "meta_norad_cat_id": 66593,
        "meta_element_set_no": 999,
        "meta_rev_at_epoch": 262,
        "meta_bstar": -0.0077225,
        "meta_mean_motion_dot": -0.01526179,
        "meta_mean_motion_ddot": 0,
        "tle_line1": "1 66593U 25270F   25335.66671295 -.01526179  00000+0 -77225-2 0  9992",
        "tle_line2": "2 66593  42.9982 258.9120 0001703 260.0680 305.9294 15.83355894  2628"
      },
      "geometry": {
        "type": "Point",
        "coordinates": [
          -177.4525879126486,
          -41.550040473660786
        ]
      }
    }
  ]
}